{
    "links": {
        "self": "http://www.neowsapp.com/rest/v1/neo/3799721?api_key=iIulBulltgU6a56xZRHN4H3l9WmuAYTsLGpBGhQ2"
    },
    "id": "3799721",
    "neo_reference_id": "3799721",
    "name": "(2018 DG1)",
    "designation": "2018 DG1",
    "nasa_jpl_url": "http://ssd.jpl.nasa.gov/sbdb.cgi?sstr=3799721",
    "absolute_magnitude_h": 22.9,
    "estimated_diameter": {
        "kilometers": {
            "estimated_diameter_min": 0.0699125232,
            "estimated_diameter_max": 0.1563291544
        },
        "meters": {
            "estimated_diameter_min": 69.9125232246,
            "estimated_diameter_max": 156.3291544087
        },
        "miles": {
            "estimated_diameter_min": 0.0434416145,
            "estimated_diameter_max": 0.097138403
        },
        "feet": {
            "estimated_diameter_min": 229.3718026961,
            "estimated_diameter_max": 512.8909429502
        }
    },
    "is_potentially_hazardous_asteroid": false,
    "close_approach_data": [
        {
            "close_approach_date": "1945-09-02",
            "close_approach_date_full": "1945-Sep-02 00:27",
            "epoch_date_close_approach": -767835180000,
            "relative_velocity": {
                "kilometers_per_second": "20.2136993459",
                "kilometers_per_hour": "72769.3176450733",
                "miles_per_hour": "45216.0240667401"
            },
            "miss_distance": {
                "astronomical": "0.0955392691",
                "lunar": "37.1647756799",
                "kilometers": "14292471.158716817",
                "miles": "8880929.7638413946"
            },
            "orbiting_body": "Earth"
        },
        {
            "close_approach_date": "1948-03-09",
            "close_approach_date_full": "1948-Mar-09 10:30",
            "epoch_date_close_approach": -688397400000,
            "relative_velocity": {
                "kilometers_per_second": "28.6665922498",
                "kilometers_per_hour": "103199.7320994348",
                "miles_per_hour": "64124.3002036738"
            },
            "miss_distance": {
                "astronomical": "0.3825171914",
                "lunar": "148.7991874546",
                "kilometers": "57223757.071822318",
                "miles": "35557193.8354432684"
            },
            "orbiting_body": "Earth"
        },
        {
            "close_approach_date": "2015-08-15",
            "close_approach_date_full": "2015-Aug-15 00:37",
            "epoch_date_close_approach": 1439599020000,
            "relative_velocity": {
                "kilometers_per_second": "30.7167833027",
                "kilometers_per_hour": "110580.419889697",
                "miles_per_hour": "68710.3725697953"
            },
            "miss_distance": {
                "astronomical": "0.4577050162",
                "lunar": "178.0472513018",
                "kilometers": "68471695.511835494",
                "miles": "42546338.6911140572"
            },
            "orbiting_body": "Earth"
        },
        {
            "close_approach_date": "2018-02-17",
            "close_approach_date_full": "2018-Feb-17 21:47",
            "epoch_date_close_approach": 1518904020000,
            "relative_velocity": {
                "kilometers_per_second": "16.9358575902",
                "kilometers_per_hour": "60969.0873248284",
                "miles_per_hour": "37883.8198435857"
            },
            "miss_distance": {
                "astronomical": "0.0589134469",
                "lunar": "22.9173308441",
                "kilometers": "8813326.170598103",
                "miles": "5476346.9408277014"
            },
            "orbiting_body": "Earth"
        },
        {
            "close_approach_date": "2072-03-11",
            "close_approach_date_full": "2072-Mar-11 04:17",
            "epoch_date_close_approach": 3224895420000,
            "relative_velocity": {
                "kilometers_per_second": "29.0274029865",
                "kilometers_per_hour": "104498.6507512722",
                "miles_per_hour": "64931.3977404224"
            },
            "miss_distance": {
                "astronomical": "0.3948004344",
                "lunar": "153.5773689816",
                "kilometers": "59061304.061314728",
                "miles": "36698992.5888021264"
            },
            "orbiting_body": "Earth"
        }
    ],
    "orbital_data": {
        "orbit_id": "6",
        "orbit_determination_date": "2018-03-13 06:13:02",
        "first_observation_date": "2018-02-22",
        "last_observation_date": "2018-03-13",
        "data_arc_in_days": 19,
        "observations_used": 107,
        "orbit_uncertainty": "8",
        "minimum_orbit_intersection": ".0105653",
        "jupiter_tisserand_invariant": "3.929",
        "epoch_osculation": "2458178.5",
        "eccentricity": ".6068191384187379",
        "semi_major_axis": "1.718326667383574",
        "inclination": "9.455312843801053",
        "ascending_node_longitude": "349.0796922900046",
        "orbital_period": "822.7294096556593",
        "perihelion_distance": ".6756131595599322",
        "perihelion_argument": "78.64639630357004",
        "aphelion_distance": "2.761040175207215",
        "perihelion_time": "2458118.650326473945",
        "mean_anomaly": "26.18829741165749",
        "mean_motion": ".4375679242470163",
        "equinox": "J2000",
        "orbit_class": {
            "orbit_class_type": "APO",
            "orbit_class_description": "Near-Earth asteroid orbits which cross the Earth’s orbit similar to that of 1862 Apollo",
            "orbit_class_range": "a (semi-major axis) > 1.0 AU; q (perihelion) < 1.017 AU"
        }
    },
    "is_sentry_object": false
}